[{"OBJECT_NAME":"NIGHTJAR","OBJECT_ID":"2024-149BV","EPOCH":"2026-03-09T15:29:33.054144","MEAN_MOTION":14.9839881,"ECCENTRICITY":0.00023928,"INCLINATION":97.6919,"RA_OF_ASC_NODE":146.7603,"ARG_OF_PERICENTER":83.3363,"MEAN_ANOMALY":276.8132,"EPHEMERIS_TYPE":0,"CLASSIFICATION_TYPE":"U","NORAD_CAT_ID":60535,"ELEMENT_SET_NO":999,"REV_AT_EPOCH":12796,"BSTAR":0.00036343971,"MEAN_MOTION_DOT":4.278e-5,"MEAN_MOTION_DDOT":0},{"OBJECT_NAME":"STARLINK-36291","OBJECT_ID":"2025-304D","EPOCH":"2026-03-09T17:12:56.223360","MEAN_MOTION":14.99126226,"ECCENTRICITY":0.00028277,"INCLINATION":70.0022,"RA_OF_ASC_NODE":174.5958,"ARG_OF_PERICENTER":272.889,"MEAN_ANOMALY":87.1946,"EPHEMERIS_TYPE":0,"CLASSIFICATION_TYPE":"U","NORAD_CAT_ID":67195,"ELEMENT_SET_NO":999,"REV_AT_EPOCH":1388,"BSTAR":-0.00017935491,"MEAN_MOTION_DOT":-2.278e-5,"MEAN_MOTION_DDOT":0}]
