NIGHTJAR                
1 60535U 24149BV  26068.64552146  .00004278  00000+0  36344-3 0  9997
2 60535  97.6919 146.7603 0002393  83.3363 276.8132 14.98398810127967
STARLINK-36291          
1 67195U 25304D   26068.71731740 -.00002278  00000+0 -17935-3 0  9992
2 67195  70.0022 174.5958 0002828 272.8890  87.1946 14.99126226 13883
